start=new Date('2021-10-12T00:00:00.000Z').valueOf();
sats=[{"REF_FRAME":"TEME","OBJECT_TYPE":"PAYLOAD","OBJECT_NAME":"STARLINK-2178","SEMIMAJOR_AXIS":"6925.345","REV_AT_EPOCH":"3494","BSTAR":"0.00006494900000","EPHEMERIS_TYPE":"0","CLASSIFICATION_TYPE":"U","OBJECT_ID":"2021-017AQ","RA_OF_ASC_NODE":"249.3871","EPOCH":"2021-10-11T15:17:48.518304","ECCENTRICITY":"0.00012950","LAUNCH_DATE":"2021-03-04","SITE":"AFETR","MEAN_MOTION":"15.06401067","MEAN_MOTION_DDOT":"0.0000000000000","FILE":"3157563","PERIOD":"95.592","ELEMENT_SET_NO":"999","TLE_LINE2":"2 47760  53.0549 249.3871 0001295  79.8625 280.2510 15.06401067 34948","TIME_SYSTEM":"UTC","APOAPSIS":"548.107","MEAN_ELEMENT_THEORY":"SGP4","CENTER_NAME":"EARTH","INCLINATION":"53.0549","ARG_OF_PERICENTER":"79.8625","PERIAPSIS":"546.313","DECAY_DATE":null,"NORAD_CAT_ID":"47760","COUNTRY_CODE":"US","TLE_LINE1":"1 47760U 21017AQ  21284.63736711  .00000686  00000-0  64949-4 0  9992","MEAN_MOTION_DOT":"0.00000686","GP_ID":"186930592","MEAN_ANOMALY":"280.2510","RCS_SIZE":"LARGE"},{"REV_AT_EPOCH":"3505","SEMIMAJOR_AXIS":"6925.340","OBJECT_NAME":"STARLINK-2179","OBJECT_TYPE":"PAYLOAD","REF_FRAME":"TEME","APOAPSIS":"548.369","TIME_SYSTEM":"UTC","ELEMENT_SET_NO":"999","PERIOD":"95.592","TLE_LINE2":"2 47761  53.0543 239.5913 0001682  77.4709 282.6468 15.06402942 35052","FILE":"3157563","MEAN_MOTION_DDOT":"0.0000000000000","LAUNCH_DATE":"2021-03-04","SITE":"AFETR","MEAN_MOTION":"15.06402942","RA_OF_ASC_NODE":"239.5913","EPOCH":"2021-10-11T14:26:02.778720","ECCENTRICITY":"0.00016820","CLASSIFICATION_TYPE":"U","OBJECT_ID":"2021-017AR","BSTAR":"0.00009464100000","EPHEMERIS_TYPE":"0","GP_ID":"186929340","TLE_LINE1":"1 47761U 21017AR  21284.60142105  .00001128  00000-0  94641-4 0  9992","MEAN_MOTION_DOT":"0.00001128","NORAD_CAT_ID":"47761","COUNTRY_CODE":"US","PERIAPSIS":"546.040","DECAY_DATE":null,"ARG_OF_PERICENTER":"77.4709","CENTER_NAME":"EARTH","INCLINATION":"53.0543","MEAN_ELEMENT_THEORY":"SGP4","RCS_SIZE":"LARGE","MEAN_ANOMALY":"282.6468"},{"MEAN_ANOMALY":"287.0441","RCS_SIZE":"LARGE","MEAN_ELEMENT_THEORY":"SGP4","ARG_OF_PERICENTER":"73.0716","CENTER_NAME":"EARTH","INCLINATION":"53.0559","NORAD_CAT_ID":"47762","COUNTRY_CODE":"US","PERIAPSIS":"546.158","DECAY_DATE":null,"GP_ID":"186929091","TLE_LINE1":"1 47762U 21017AS  21284.62674881  .00000754  00000-0  69503-4 0  9999","MEAN_MOTION_DOT":"0.00000754","CLASSIFICATION_TYPE":"U","OBJECT_ID":"2021-017AS","BSTAR":"0.00006950300000","EPHEMERIS_TYPE":"0","LAUNCH_DATE":"2021-03-04","MEAN_MOTION":"15.06397283","SITE":"AFETR","RA_OF_ASC_NODE":"254.4783","ECCENTRICITY":"0.00015360","EPOCH":"2021-10-11T15:02:31.097184","PERIOD":"95.592","ELEMENT_SET_NO":"999","TLE_LINE2":"2 47762  53.0559 254.4783 0001536  73.0716 287.0441 15.06397283 34868","FILE":"3157563","MEAN_MOTION_DDOT":"0.0000000000000","APOAPSIS":"548.286","TIME_SYSTEM":"UTC","OBJECT_TYPE":"PAYLOAD","REF_FRAME":"TEME","OBJECT_NAME":"STARLINK-2180","REV_AT_EPOCH":"3486","SEMIMAJOR_AXIS":"6925.357"},{"SEMIMAJOR_AXIS":"6925.369","REV_AT_EPOCH":"3491","OBJECT_NAME":"STARLINK-2181","REF_FRAME":"TEME","OBJECT_TYPE":"PAYLOAD","TIME_SYSTEM":"UTC","APOAPSIS":"548.331","FILE":"3157068","MEAN_MOTION_DDOT":"0.0000000000000","TLE_LINE2":"2 47763  53.0545 246.3733 0001585  72.3616 287.7546 15.06393399 34917","ELEMENT_SET_NO":"999","PERIOD":"95.593","ECCENTRICITY":"0.00015850","EPOCH":"2021-10-11T04:17:39.023232","RA_OF_ASC_NODE":"246.3733","SITE":"AFETR","MEAN_MOTION":"15.06393399","LAUNCH_DATE":"2021-03-04","EPHEMERIS_TYPE":"0","BSTAR":"0.00001433000000","OBJECT_ID":"2021-017AT","CLASSIFICATION_TYPE":"U","MEAN_MOTION_DOT":"-0.00000068","TLE_LINE1":"1 47763U 21017AT  21284.17892388 -.00000068  00000-0  14330-4 0  9991","GP_ID":"186895139","DECAY_DATE":null,"PERIAPSIS":"546.136","COUNTRY_CODE":"US","NORAD_CAT_ID":"47763","CENTER_NAME":"EARTH","INCLINATION":"53.0545","ARG_OF_PERICENTER":"72.3616","MEAN_ELEMENT_THEORY":"SGP4","RCS_SIZE":"LARGE","MEAN_ANOMALY":"287.7546"},{"MEAN_ANOMALY":"293.3348","RCS_SIZE":"LARGE","INCLINATION":"53.0562","CENTER_NAME":"EARTH","ARG_OF_PERICENTER":"66.7793","MEAN_ELEMENT_THEORY":"SGP4","MEAN_MOTION_DOT":"-0.00001571","TLE_LINE1":"1 47764U 21017AU  21284.61294552 -.00001571  00000-0 -86624-4 0  9996","GP_ID":"186930093","DECAY_DATE":null,"PERIAPSIS":"546.227","COUNTRY_CODE":"US","NORAD_CAT_ID":"47764","EPOCH":"2021-10-11T14:42:38.492928","ECCENTRICITY":"0.00014370","RA_OF_ASC_NODE":"254.5301","SITE":"AFETR","MEAN_MOTION":"15.06397051","LAUNCH_DATE":"2021-03-04","EPHEMERIS_TYPE":"0","BSTAR":"-0.00008662400000","OBJECT_ID":"2021-017AU","CLASSIFICATION_TYPE":"U","TIME_SYSTEM":"UTC","APOAPSIS":"548.218","FILE":"3157563","MEAN_MOTION_DDOT":"0.0000000000000","TLE_LINE2":"2 47764  53.0562 254.5301 0001437  66.7793 293.3348 15.06397051 34897","ELEMENT_SET_NO":"999","PERIOD":"95.592","REF_FRAME":"TEME","OBJECT_TYPE":"PAYLOAD","REV_AT_EPOCH":"3489","SEMIMAJOR_AXIS":"6925.358","OBJECT_NAME":"STARLINK-2182"},{"SITE":"AFETR","MEAN_MOTION":"15.06391777","LAUNCH_DATE":"2021-03-04","ECCENTRICITY":"0.00012240","EPOCH":"2021-10-11T13:57:31.513536","RA_OF_ASC_NODE":"234.6615","OBJECT_ID":"2021-017AV","CLASSIFICATION_TYPE":"U","EPHEMERIS_TYPE":"0","BSTAR":"0.00000092677000","APOAPSIS":"548.086","TIME_SYSTEM":"UTC","TLE_LINE2":"2 47765  53.0551 234.6615 0001224  63.4999 296.6115 15.06391777 35123","PERIOD":"95.593","ELEMENT_SET_NO":"999","FILE":"3157068","MEAN_MOTION_DDOT":"0.0000000000000","OBJECT_TYPE":"PAYLOAD","REF_FRAME":"TEME","REV_AT_EPOCH":"3512","SEMIMAJOR_AXIS":"6925.374","OBJECT_NAME":"STARLINK-2183","MEAN_ANOMALY":"296.6115","RCS_SIZE":"LARGE","ARG_OF_PERICENTER":"63.4999","CENTER_NAME":"EARTH","INCLINATION":"53.0551","MEAN_ELEMENT_THEORY":"SGP4","GP_ID":"186896627","MEAN_MOTION_DOT":"-0.00000268","TLE_LINE1":"1 47765U 21017AV  21284.58161474 -.00000268  00000-0  92677-6 0  9997","COUNTRY_CODE":"US","NORAD_CAT_ID":"47765","DECAY_DATE":null,"PERIAPSIS":"546.391"},{"RCS_SIZE":"LARGE","MEAN_ANOMALY":"287.8580","PERIAPSIS":"546.201","DECAY_DATE":null,"NORAD_CAT_ID":"47766","COUNTRY_CODE":"US","TLE_LINE1":"1 47766U 21017AW  21284.63137717  .00000070  00000-0  23572-4 0  9993","MEAN_MOTION_DOT":"0.00000070","GP_ID":"186929591","MEAN_ELEMENT_THEORY":"SGP4","CENTER_NAME":"EARTH","INCLINATION":"53.0550","ARG_OF_PERICENTER":"72.2571","MEAN_MOTION_DDOT":"0.0000000000000","FILE":"3157563","PERIOD":"95.593","ELEMENT_SET_NO":"999","TLE_LINE2":"2 47766  53.0550 254.4473 0001487  72.2571 287.8580 15.06394241 34834","TIME_SYSTEM":"UTC","APOAPSIS":"548.261","BSTAR":"0.00002357200000","EPHEMERIS_TYPE":"0","CLASSIFICATION_TYPE":"U","OBJECT_ID":"2021-017AW","RA_OF_ASC_NODE":"254.4473","EPOCH":"2021-10-11T15:09:10.987488","ECCENTRICITY":"0.00014870","LAUNCH_DATE":"2021-03-04","SITE":"AFETR","MEAN_MOTION":"15.06394241","OBJECT_NAME":"STARLINK-2184","REV_AT_EPOCH":"3483","SEMIMAJOR_AXIS":"6925.366","REF_FRAME":"TEME","OBJECT_TYPE":"PAYLOAD"},{"SEMIMAJOR_AXIS":"6925.371","REV_AT_EPOCH":"3505","OBJECT_NAME":"STARLINK-2185","OBJECT_TYPE":"PAYLOAD","REF_FRAME":"TEME","APOAPSIS":"548.200","TIME_SYSTEM":"UTC","ELEMENT_SET_NO":"999","PERIOD":"95.593","TLE_LINE2":"2 47767  53.0550 241.1205 0001392  77.7715 282.3429 15.06392682 35050","FILE":"3157068","MEAN_MOTION_DDOT":"0.0000000000000","LAUNCH_DATE":"2021-03-04","MEAN_MOTION":"15.06392682","SITE":"AFETR","RA_OF_ASC_NODE":"241.1205","EPOCH":"2021-10-11T06:12:26.374176","ECCENTRICITY":"0.00013920","CLASSIFICATION_TYPE":"U","OBJECT_ID":"2021-017AX","BSTAR":"0.00014593000000","EPHEMERIS_TYPE":"0","GP_ID":"186895639","TLE_LINE1":"1 47767U 21017AX  21284.25863859  .00001892  00000-0  14593-3 0  9990","MEAN_MOTION_DOT":"0.00001892","NORAD_CAT_ID":"47767","COUNTRY_CODE":"US","PERIAPSIS":"546.272","DECAY_DATE":null,"ARG_OF_PERICENTER":"77.7715","CENTER_NAME":"EARTH","INCLINATION":"53.0550","MEAN_ELEMENT_THEORY":"SGP4","RCS_SIZE":"LARGE","MEAN_ANOMALY":"282.3429"},{"MEAN_ANOMALY":"292.0849","RCS_SIZE":"LARGE","MEAN_ELEMENT_THEORY":"SGP4","ARG_OF_PERICENTER":"68.0301","INCLINATION":"53.0559","CENTER_NAME":"EARTH","COUNTRY_CODE":"US","NORAD_CAT_ID":"47768","DECAY_DATE":null,"PERIAPSIS":"546.162","GP_ID":"186930593","MEAN_MOTION_DOT":"0.00001771","TLE_LINE1":"1 47768U 21017AY  21284.65991738  .00001771  00000-0  13779-3 0  9994","OBJECT_ID":"2021-017AY","CLASSIFICATION_TYPE":"U","EPHEMERIS_TYPE":"0","BSTAR":"0.00013779000000","SITE":"AFETR","MEAN_MOTION":"15.06399725","LAUNCH_DATE":"2021-03-04","EPOCH":"2021-10-11T15:50:16.861632","ECCENTRICITY":"0.00015190","RA_OF_ASC_NODE":"254.3324","TLE_LINE2":"2 47768  53.0559 254.3324 0001519  68.0301 292.0849 15.06399725 34871","ELEMENT_SET_NO":"999","PERIOD":"95.592","MEAN_MOTION_DDOT":"0.0000000000000","FILE":"3157563","APOAPSIS":"548.266","TIME_SYSTEM":"UTC","OBJECT_TYPE":"PAYLOAD","REF_FRAME":"TEME","OBJECT_NAME":"STARLINK-2189","REV_AT_EPOCH":"3487","SEMIMAJOR_AXIS":"6925.349"},{"LAUNCH_DATE":"2021-03-04","MEAN_MOTION":"15.06409343","SITE":"AFETR","RA_OF_ASC_NODE":"218.2241","ECCENTRICITY":"0.00017390","EPOCH":"2021-10-11T21:43:55.837632","CLASSIFICATION_TYPE":"U","OBJECT_ID":"2021-017AZ","BSTAR":"0.00011542000000","EPHEMERIS_TYPE":"0","APOAPSIS":"548.389","TIME_SYSTEM":"UTC","ELEMENT_SET_NO":"999","PERIOD":"95.592","TLE_LINE2":"2 47769  53.0511 218.2241 0001739  70.9220 289.1957 15.06409343 35420","FILE":"3157563","MEAN_MOTION_DDOT":"0.0000000000000","OBJECT_TYPE":"PAYLOAD","REF_FRAME":"TEME","REV_AT_EPOCH":"3542","SEMIMAJOR_AXIS":"6925.320","OBJECT_NAME":"STARLINK-2192","MEAN_ANOMALY":"289.1957","RCS_SIZE":"LARGE","ARG_OF_PERICENTER":"70.9220","CENTER_NAME":"EARTH","INCLINATION":"53.0511","MEAN_ELEMENT_THEORY":"SGP4","GP_ID":"186929341","TLE_LINE1":"1 47769U 21017AZ  21284.90550738  .00001438  00000-0  11542-3 0  9990","MEAN_MOTION_DOT":"0.00001438","NORAD_CAT_ID":"47769","COUNTRY_CODE":"US","PERIAPSIS":"545.981","DECAY_DATE":null}];
